UNKNOWN                 
1 81845U          25302.79776666  .00003787  00000+0  42202-3 0  9999
2 81845  97.6773 131.4074 0089886  89.5971 285.1072 14.84713299643001
UNKNOWN                 
1 81864U          25305.88446097  .00001560  00000+0  63633-3 0  9993
2 81864  65.6708 162.3297 0760992  30.9093 333.4522 13.32252141545390
UNKNOWN                 
1 81865U          25306.61356490  .00002010  00000+0  16536-2 0  9993
2 81865  82.8053  59.6579 0063877 119.8682 256.7683 13.87835419602984
UNKNOWN                 
1 81893U          25300.20611166  .00001474  00000+0  15524-2 0  9996
2 81893 100.0433 280.9726 0021533  28.8890 331.3445 13.76539965597676
UNKNOWN                 
1 81899U          25299.20552458  .00001892  00000+0  44780-2 0  9997
2 81899 102.4165  32.4576 0175141 312.7003  45.9468 13.19988988572710
UNKNOWN                 
1 81921U          25299.33746147  .00001301  00000+0  54748-3 0  9998
2 81921  65.7062 160.7212 0849516 134.9826 232.3358 13.14903195 19556
UNKNOWN                 
1 81946U          25304.81041389  .00000133  00000+0  61099-3 0  9990
2 81946  66.4188 233.2879 0669336  11.5264  17.4040 12.42557959542678
UNKNOWN                 
1 81947U          25302.70635402  .00005621  00000+0  53496-3 0  9991
2 81947  66.0746 290.9679 0382849 170.1603 190.7287 14.52062274624621
UNKNOWN                 
1 81964U          25306.54740543  .00000274  00000+0  25812-3 0  9999
2 81964  66.5862 358.5963 0029778 120.2573 240.1460 13.95757637608436
UNKNOWN                 
1 81969U          25305.60593493  .00009924  00000+0  61215-3 0  9998
2 81969  86.6899 171.2607 0005085   2.9487 357.1780 15.09805894433968
UNKNOWN                 
1 81995U          25305.52692984  .00010380  00000+0  19657-2 0  9993
2 81995  65.7450 231.7721 0521132 317.2563  38.9060 14.03087461598445
UNKNOWN                 
1 82043U          25305.15494281  .00005546  00000+0  15410-2 0  9998
2 82043  97.9261  97.3521 0232668 208.3680 150.4676 14.32090235567897
UNKNOWN                 
1 82051U          25305.50250824  .00005193  00000+0  17439-2 0  9990
2 82051  98.7497  30.4089 0092059  22.2945 338.2202 14.35243161566495
UNKNOWN                 
1 82073U          25306.48393549  .00002277  00000+0  58820-3 0  9994
2 82073  97.7571  26.4326 0208855  50.8508 311.1037 14.38550416569334
UNKNOWN                 
1 82139U          25305.63823209  .00003081  00000+0  15561-2 0  9992
2 82139  99.0276  13.0282 0084685 159.0834 201.3837 14.15128114474305
UNKNOWN                 
1 82162U          25306.50892816  .00003790  00000+0  56652-2 0  9998
2 82162 100.4768 228.7087 0064744 330.6218  29.1282 13.53143859498860
UNKNOWN                 
1 82180U          25300.06178646  .00029618  00000+0  38605-2 0  9996
2 82180  65.6558  60.1767 0331460 240.7339 116.0253 14.48806690594987
UNKNOWN                 
1 82189U          25306.21702263  .00000365  00000+0  13683-3 0  9994
2 82189  74.0324 122.6164 0017081 320.8115  39.1799 14.35163502626607
UNKNOWN                 
1 82199U          25305.87982699  .00000684  00000+0  58100-3 0  9996
2 82199  82.9645 264.5980 0037299 149.5624 240.9935 13.85710554604034
UNKNOWN                 
1 82205U          25306.54447312  .00004093  00000+0  11708-2 0  9997
2 82205  63.0119 359.4544 0494795 288.7475  66.0508 13.92827582602406
UNKNOWN                 
1 82223U          25301.40951089  .00002980  00000+0  16313-2 0  9998
2 82223  99.3191 185.6210 0068824 110.4348 250.4229 14.11518009442399
UNKNOWN                 
1 82250U          25301.70625250  .00004674  00000+0  24508-2 0  9996
2 82250  98.9048 207.3433 0073200 320.9961  67.4133 14.13330554610270
UNKNOWN                 
1 82272U          25302.68521949  .00000238  00000+0  88063-3 0  9997
2 82272  67.5241 280.5134 0753268 134.9252 231.5457 12.33494942266505
UNKNOWN                 
1 82295U          25306.12613720  .00001627  00000+0  59203-3 0  9991
2 82295  66.6192 254.9977 0129820 250.7443 107.9574 14.31173640573916
UNKNOWN                 
1 82303U          25306.53813731  .00030364  00000+0  26960-1 0  9992
2 82303  81.9090  37.8012 0068632 137.3600 249.8011 13.83511241508862
UNKNOWN                 
1 82311U          25305.39321241  .00000704  00000+0  10507-2 0  9990
2 82311  99.4380   1.0994 0109103  52.9910 308.1152 13.54465426544725
UNKNOWN                 
1 82363U          25305.63176466  .00000530  00000+0  91703-3 0  9996
2 82363  66.9348 281.9851 0459594 192.2796 166.6735 13.15574703284853
UNKNOWN                 
1 82369U          25305.31222040  .00000129  00000+0  11649-3 0  9992
2 82369  98.9017 321.6318 0084344  93.4638 267.6178 13.98129206551384
UNKNOWN                 
1 82381U          25306.59044939  .00020826  00000+0  28830-2 0  9991
2 82381  98.4019 169.5700 0008998 286.4483  73.5737 14.78017143504874
UNKNOWN                 
1 82402U          25305.62820784  .00006062  00000+0  45124-3 0  9990
2 82402  86.6662 173.3414 0006905 332.4789  27.6078 15.02760742448292
UNKNOWN                 
1 82432U          25302.75892794  .00003737  00000+0  79690-3 0  9995
2 82432  74.0082  64.4530 0057022 239.9565 119.5937 14.58270752476495
UNKNOWN                 
1 82448U          25306.01697245  .00007359  00000+0  54475-3 0  9997
2 82448  85.8740 221.0657 0011624  58.4762 301.7605 15.02950699430925
UNKNOWN                 
1 82453U          25305.59941774  .00000003  00000+0  36112-3 0  9991
2 82453 102.1697 262.0074 0093774 283.3240  75.7380 12.39698968540968
UNKNOWN                 
1 82458U          25297.77306600  .00003765  00000+0  17103-2 0  9995
2 82458  66.5148 311.0021 0044906  40.7381 319.7055 14.22335814603072
UNKNOWN                 
1 82484U          25305.78535259  .00000173  00000+0  30622-3 0  9991
2 82484  99.3611 329.5091 0043485 299.6673  60.0139 13.55768150585088
UNKNOWN                 
1 82494U          25306.17415748  .00019026  00000+0  22960-2 0  9998
2 82494  74.0083 102.4858 0005594 238.1368 121.9266 14.83746680 78945
UNKNOWN                 
1 82500U          25306.13706434  .00005478  00000+0  25117-2 0  9990
2 82500  70.9656  89.7492 0120041 178.3457 181.8089 14.17967611613190
UNKNOWN                 
1 82524U          25306.62953226  .00009503  00000+0  30889-2 0  9998
2 82524  73.2810 258.5657 0135540  26.3092 155.9260 14.33807887571282
UNKNOWN                 
1 82529U          25306.52481247  .00000267  00000+0  47837-3 0  9991
2 82529  99.7923  31.1853 0234724 338.8177  31.8350 13.41053874584358
UNKNOWN                 
1 82560U          25301.07854564  .00001809  00000+0  14952-2 0  9991
2 82560  99.9836 240.2747 0011981  58.1321 319.3804 13.90445136605525
UNKNOWN                 
1 82597U          25305.11974365  .00003403  00000+0  11508-2 0  9998
2 82597  66.7704 257.5574 0095310 336.2764  23.3956 14.35482820623003
UNKNOWN                 
1 82617U          25302.76369301  .00000895  00000+0  23959-3 0  9993
2 82617  74.0272 326.1798 0040091 280.5269  79.1375 14.49299104630453
UNKNOWN                 
1 82627U          25302.89885696  .00000699  00000+0  18072-2 0  9999
2 82627  82.4734 279.9007 0008319 208.0711 180.5201 13.16211052573069
UNKNOWN                 
1 82642U          25301.70487147  .00003096  00000+0  17268-2 0  9994
2 82642  98.9704 212.5670 0138374   3.2692 356.9349 14.06910870609800
UNKNOWN                 
1 82683U          25303.42791594  .00002506  00000+0  95653-3 0  9994
2 82683  98.1777  15.6224 0211940 162.4940 198.3691 14.19950345456127
UNKNOWN                 
1 82693U          25298.62987414  .00003434  00000+0  40035-2 0  9992
2 82693 100.5306 257.7353 0038060 140.4369 219.9562 13.69135328547170
UNKNOWN                 
1 82698U          25304.60572424  .00001918  00000+0  11704-2 0  9990
2 82698  61.6124 263.2711 0685300 273.8851  78.4129 13.29243009532771
UNKNOWN                 
1 82708U          25296.48286510  .00001233  00000+0  48438-2 0  9990
2 82708 102.1689 134.7870 0061886  26.2431 334.1775 12.90441701517036
UNKNOWN                 
1 82729U          25306.49656486  .00001279  00000+0  44300-2 0  9993
2 82729  67.9677 215.4580 0828084  38.4771 327.2389 12.17693753530306
UNKNOWN                 
1 82739U          25303.22996634  .00002179  00000+0  18251-2 0  9990
2 82739  99.0859 101.0763 0174317  49.9038 124.6828 13.82485635600096
UNKNOWN                 
1 82741U          25306.34599939  .00002648  00000+0  28974-2 0  9990
2 82741 102.8506 328.8053 0198740 356.6116   3.3658 13.65744957591564
UNKNOWN                 
1 82783U          25305.96995910  .00000374  00000+0  10719-2 0  9994
2 82783  90.3411  36.8752 0025582 215.7100 144.2317 13.08937196499020
UNKNOWN                 
1 82798U          25300.54598089  .00002999  00000+0  13288-2 0  9994
2 82798  82.9504 228.7921 0030286 316.3010 222.3841 14.22600605305802
UNKNOWN                 
1 82820U          25304.69572397  .00005685  00000+0  20065-2 0  9990
2 82820  99.7883  99.8905 0049949 135.9856 224.5318 14.34469255619608
UNKNOWN                 
1 82829U          25304.50476488  .00000035  00000+0  21351-2 0  9996
2 82829  65.0944 126.2556 0168315 345.0925  42.7807 11.29112830481311
UNKNOWN                 
1 82854U          25299.74133536  .00001837  00000+0  14461-2 0  9992
2 82854  82.6878 101.4555 0127373  54.6938 306.6057 13.87551528601286
UNKNOWN                 
1 82873U          25302.63167781  .00004594  00000+0  20089-2 0  9991
2 82873  99.9948 190.7938 0041454  44.7734 315.6774 14.23910653614954
UNKNOWN                 
1 82875U          25305.67819443  .00001497  00000+0  39689-3 0  9995
2 82875  98.6721 290.0485 0379615  40.9881 321.9175 14.14990125538666
UNKNOWN                 
1 82893U          25306.05480487  .00008906  00000+0  34133-2 0  9990
2 82893  98.9616  59.8716 0027458 164.7218 195.4798 14.30577318418153
